{"type": "FeatureCollection", "features": [ {"type": "Feature", "properties": {"norad_id": 31807, "name": "FENGYUN 1C DEB", "group": "fengyun-1c-debris", "lat": 10.967526393577705, "lon": 112.5420436666149, "alt_km": 791.1540455745544, "timestamp": "2025-12-09T14:52:26.446211+00:00", "meta": {"OBJECT_NAME": "FENGYUN 1C DEB", "OBJECT_ID": "1999-025CGV", "EPOCH": "2025-12-08T02:26:12.083136", "MEAN_MOTION": 14.51978822, "ECCENTRICITY": 0.01055806, "INCLINATION": 99.0774, "RA_OF_ASC_NODE": 112.6776, "ARG_OF_PERICENTER": 176.4224, "MEAN_ANOMALY": 183.7748, "EPHEMERIS_TYPE": 0, "CLASSIFICATION_TYPE": "U", "NORAD_CAT_ID": 31807, "ELEMENT_SET_NO": 999, "REV_AT_EPOCH": 65238, "BSTAR": 0.0014607237, "MEAN_MOTION_DOT": 6.292e-05, "MEAN_MOTION_DDOT": 0}, "tle": {"line1": "1 31807U 99025CGV 25342.10152874  .00006292  00000+0  14607-2 0  9996", "line2": "2 31807  99.0774 112.6776 0105580 176.4224 183.7748 14.51978822652381"}}, "geometry": {"type": "Point", "coordinates": [112.5420436666149, 10.967526393577705]}}, {"type": "Feature", "properties": {"norad_id": 31808, "name": "FENGYUN 1C DEB", "group": "fengyun-1c-debris", "lat": 11.333070810175755, "lon": 168.4090159335502, "alt_km": 723.8677097059381, "timestamp": "2025-12-09T14:52:26.446221+00:00", "meta": {"OBJECT_NAME": "FENGYUN 1C DEB", "OBJECT_ID": "1999-025CGW", "EPOCH": "2025-12-06T07:42:11.514240", "MEAN_MOTION": 14.56750556, "ECCENTRICITY": 0.00373271, "INCLINATION": 99.2036, "RA_OF_ASC_NODE": 166.6311, "ARG_OF_PERICENTER": 160.1582, "MEAN_ANOMALY": 200.1075, "EPHEMERIS_TYPE": 0, "CLASSIFICATION_TYPE": "U", "NORAD_CAT_ID": 31808, "ELEMENT_SET_NO": 999, "REV_AT_EPOCH": 57509, "BSTAR": 0.0097701777, "MEAN_MOTION_DOT": 0.00044336, "MEAN_MOTION_DDOT": 0}, "tle": {"line1": "1 31808U 99025CGW 25340.32096660  .00044336  00000+0  97702-2 0  9997", "line2": "2 31808  99.2036 166.6311 0037327 160.1582 200.1075 14.56750556575095"}}, "geometry": {"type": "Point", "coordinates": [168.4090159335502, 11.333070810175755]}}, {"type": "Feature", "properties": {"norad_id": 31810, "name": "FENGYUN 1C DEB", "group": "fengyun-1c-debris", "lat": -27.44547458672227, "lon": 3.412586137151257, "alt_km": 897.5338020821227, "timestamp": "2025-12-09T14:52:26.446231+00:00", "meta": {"OBJECT_NAME": "FENGYUN 1C DEB", "OBJECT_ID": "1999-025CGY", "EPOCH": "2025-12-08T19:04:32.471328", "MEAN_MOTION": 14.45806418, "ECCENTRICITY": 0.0214343, "INCLINATION": 98.2692, "RA_OF_ASC_NODE": 358.2761, "ARG_OF_PERICENTER": 152.2944, "MEAN_ANOMALY": 208.9865, "EPHEMERIS_TYPE": 0, "CLASSIFICATION_TYPE": "U", "NORAD_CAT_ID": 31810, "ELEMENT_SET_NO": 999, "REV_AT_EPOCH": 64357, "BSTAR": 0.00094040774, "MEAN_MOTION_DOT": 4.388e-05, "MEAN_MOTION_DDOT": 0}, "tle": {"line1": "1 31810U 99025CGY 25342.79482027  .00004388  00000+0  94041-3 0  9996", "line2": "2 31810  98.2692 358.2761 0214343 152.2944 208.9865 14.45806418643571"}}, "geometry": {"type": "Point", "coordinates": [3.412586137151257, -27.44547458672227]}}, {"type": "Feature", "properties": {"norad_id": 31813, "name": "FENGYUN 1C DEB", "group": "fengyun-1c-debris", "lat": -28.790826569069434, "lon": -122.45946183294363, "alt_km": 798.6917170187635, "timestamp": "2025-12-09T14:52:26.446242+00:00", "meta": {"OBJECT_NAME": "FENGYUN 1C DEB", "OBJECT_ID": "1999-025CHB", "EPOCH": "2025-12-07T10:33:28.654272", "MEAN_MOTION": 14.49754247, "ECCENTRICITY": 0.01364096, "INCLINATION": 99.4272, "RA_OF_ASC_NODE": 60.3431, "ARG_OF_PERICENTER": 349.4228, "MEAN_ANOMALY": 10.41, "EPHEMERIS_TYPE": 0, "CLASSIFICATION_TYPE": "U", "NORAD_CAT_ID": 31813, "ELEMENT_SET_NO": 999, "REV_AT_EPOCH": 97179, "BSTAR": 0.00069758631, "MEAN_MOTION_DOT": 2.966e-05, "MEAN_MOTION_DDOT": 0}, "tle": {"line1": "1 31813U 99025CHB 25341.43991498  .00002966  00000+0  69759-3 0  9994", "line2": "2 31813  99.4272  60.3431 0136409 349.4228  10.4100 14.49754247971799"}}, "geometry": {"type": "Point", "coordinates": [-122.45946183294363, -28.790826569069434]}}, {"type": "Feature", "properties": {"norad_id": 31814, "name": "FENGYUN 1C DEB", "group": "fengyun-1c-debris", "lat": -54.72956515743066, "lon": -160.25855943017936, "alt_km": 853.1291794603012, "timestamp": "2025-12-09T14:52:26.446262+00:00", "meta": {"OBJECT_NAME": "FENGYUN 1C DEB", "OBJECT_ID": "1999-025CHC", "EPOCH": "2025-12-07T21:17:57.257664", "MEAN_MOTION": 13.6646422, "ECCENTRICITY": 0.02297556, "INCLINATION": 99.5721, "RA_OF_ASC_NODE": 31.8308, "ARG_OF_PERICENTER": 227.9544, "MEAN_ANOMALY": 130.1846, "EPHEMERIS_TYPE": 0, "CLASSIFICATION_TYPE": "U", "NORAD_CAT_ID": 31814, "ELEMENT_SET_NO": 999, "REV_AT_EPOCH": 61733, "BSTAR": 0.00084873009, "MEAN_MOTION_DOT": 7.98e-06, "MEAN_MOTION_DDOT": 0}, "tle": {"line1": "1 31814U 99025CHC 25341.88746826  .00000798  00000+0  84873-3 0  9992", "line2": "2 31814  99.5721  31.8308 0229755 227.9544 130.1846 13.66464220617335"}}, "geometry": {"type": "Point", "coordinates": [-160.25855943017936, -54.72956515743066]}}, {"type": "Feature", "properties": {"norad_id": 31815, "name": "FENGYUN 1C DEB", "group": "fengyun-1c-debris", "lat": -56.928956245935325, "lon": -16.26630237854659, "alt_km": 864.3421040428211, "timestamp": "2025-12-09T14:52:26.446275+00:00", "meta": {"OBJECT_NAME": "FENGYUN 1C DEB", "OBJECT_ID": "1999-025CHD", "EPOCH": "2025-12-09T04:55:50.003904", "MEAN_MOTION": 14.10279537, "ECCENTRICITY": 0.00594083, "INCLINATION": 98.768, "RA_OF_ASC_NODE": 329.6197, "ARG_OF_PERICENTER": 32.1141, "MEAN_ANOMALY": 328.3627, "EPHEMERIS_TYPE": 0, "CLASSIFICATION_TYPE": "U", "NORAD_CAT_ID": 31815, "ELEMENT_SET_NO": 999, "REV_AT_EPOCH": 95489, "BSTAR": 8.5926697e-05, "MEAN_MOTION_DOT": 1.12e-06, "MEAN_MOTION_DDOT": 0}, "tle": {"line1": "1 31815U 99025CHD 25343.20543986  .00000112  00000+0  85927-4 0  9995", "line2": "2 31815  98.7680 329.6197 0059408  32.1141 328.3627 14.10279537954898"}}, "geometry": {"type": "Point", "coordinates": [-16.26630237854659, -56.928956245935325]}}, {"type": "Feature", "properties": {"norad_id": 31816, "name": "FENGYUN 1C DEB", "group": "fengyun-1c-debris", "lat": 61.943825357534315, "lon": -64.75062993039596, "alt_km": 846.5039561358581, "timestamp": "2025-12-09T14:52:26.446286+00:00", "meta": {"OBJECT_NAME": "FENGYUN 1C DEB", "OBJECT_ID": "1999-025CHE", "EPOCH": "2025-12-08T20:06:05.788800", "MEAN_MOTION": 13.941635, "ECCENTRICITY": 0.01211394, "INCLINATION": 98.9814, "RA_OF_ASC_NODE": 97.2273, "ARG_OF_PERICENTER": 165.1886, "MEAN_ANOMALY": 348.8175, "EPHEMERIS_TYPE": 0, "CLASSIFICATION_TYPE": "U", "NORAD_CAT_ID": 31816, "ELEMENT_SET_NO": 999, "REV_AT_EPOCH": 93639, "BSTAR": 0.0019047535, "MEAN_MOTION_DOT": 2.643e-05, "MEAN_MOTION_DDOT": 0}, "tle": {"line1": "1 31816U 99025CHE 25342.83756700  .00002643  00000+0  19048-2 0  9994", "line2": "2 31816  98.9814  97.2273 0121139 165.1886 348.8175 13.94163500936390"}}, "geometry": {"type": "Point", "coordinates": [-64.75062993039596, 61.943825357534315]}}, {"type": "Feature", "properties": {"norad_id": 31817, "name": "FENGYUN 1C DEB", "group": "fengyun-1c-debris", "lat": -79.4212533556486, "lon": 102.4808007619422, "alt_km": 726.8161792989458, "timestamp": "2025-12-09T14:52:26.446297+00:00", "meta": {"OBJECT_NAME": "FENGYUN 1C DEB", "OBJECT_ID": "1999-025CHF", "EPOCH": "2025-12-08T18:00:46.182528", "MEAN_MOTION": 14.65587232, "ECCENTRICITY": 0.00629164, "INCLINATION": 98.9193, "RA_OF_ASC_NODE": 338.7721, "ARG_OF_PERICENTER": 87.7083, "MEAN_ANOMALY": 273.132, "EPHEMERIS_TYPE": 0, "CLASSIFICATION_TYPE": "U", "NORAD_CAT_ID": 31817, "ELEMENT_SET_NO": 999, "REV_AT_EPOCH": 71347, "BSTAR": 0.0020251986, "MEAN_MOTION_DOT": 0.00011279, "MEAN_MOTION_DDOT": 0}, "tle": {"line1": "1 31817U 99025CHF 25342.75053452  .00011279  00000+0  20252-2 0  9994", "line2": "2 31817  98.9193 338.7721 0062916  87.7083 273.1320 14.65587232713472"}}, "geometry": {"type": "Point", "coordinates": [102.4808007619422, -79.4212533556486]}}, {"type": "Feature", "properties": {"norad_id": 31819, "name": "FENGYUN 1C DEB", "group": "fengyun-1c-debris", "lat": -45.009450149322454, "lon": 146.4333258614798, "alt_km": 812.6358607879511, "timestamp": "2025-12-09T14:52:26.446307+00:00", "meta": {"OBJECT_NAME": "FENGYUN 1C DEB", "OBJECT_ID": "1999-025CHH", "EPOCH": "2025-12-08T19:20:45.037248", "MEAN_MOTION": 14.30163149, "ECCENTRICITY": 0.00871624, "INCLINATION": 98.4741, "RA_OF_ASC_NODE": 334.2177, "ARG_OF_PERICENTER": 332.1076, "MEAN_ANOMALY": 27.5448, "EPHEMERIS_TYPE": 0, "CLASSIFICATION_TYPE": "U", "NORAD_CAT_ID": 31819, "ELEMENT_SET_NO": 999, "REV_AT_EPOCH": 96637, "BSTAR": 0.00077866259, "MEAN_MOTION_DOT": 2.057e-05, "MEAN_MOTION_DDOT": 0}, "tle": {"line1": "1 31819U 99025CHH 25342.80607682  .00002057  00000+0  77866-3 0  9990", "line2": "2 31819  98.4741 334.2177 0087162 332.1076  27.5448 14.30163149966373"}}, "geometry": {"type": "Point", "coordinates": [146.4333258614798, -45.009450149322454]}}, {"type": "Feature", "properties": {"norad_id": 31820, "name": "FENGYUN 1C DEB", "group": "fengyun-1c-debris", "lat": 15.16658641040329, "lon": -23.421241264931645, "alt_km": 674.8386464197465, "timestamp": "2025-12-09T14:52:26.446318+00:00", "meta": {"OBJECT_NAME": "FENGYUN 1C DEB", "OBJECT_ID": "1999-025CHJ", "EPOCH": "2025-12-05T05:31:51.203136", "MEAN_MOTION": 14.91947844, "ECCENTRICITY": 0.01510454, "INCLINATION": 98.9594, "RA_OF_ASC_NODE": 149.1402, "ARG_OF_PERICENTER": 36.1593, "MEAN_ANOMALY": 324.9721, "EPHEMERIS_TYPE": 0, "CLASSIFICATION_TYPE": "U", "NORAD_CAT_ID": 31820, "ELEMENT_SET_NO": 999, "REV_AT_EPOCH": 98144, "BSTAR": 0.0016610568, "MEAN_MOTION_DOT": 0.00020946, "MEAN_MOTION_DDOT": 0}, "tle": {"line1": "1 31820U 99025CHJ 25339.23045374  .00020946  00000+0  16611-2 0  9996", "line2": "2 31820  98.9594 149.1402 0151045  36.1593 324.9721 14.91947844981449"}}, "geometry": {"type": "Point", "coordinates": [-23.421241264931645, 15.16658641040329]}}]}